[{"OBJECT_NAME":"CUBESX-HSE 3 (RS42S)","OBJECT_ID":"2023-091N","EPOCH":"2026-03-09T22:57:25.321248","MEAN_MOTION":15.286147,"ECCENTRICITY":0.00127191,"INCLINATION":97.5203,"RA_OF_ASC_NODE":133.4295,"ARG_OF_PERICENTER":86.5376,"MEAN_ANOMALY":273.7318,"EPHEMERIS_TYPE":0,"CLASSIFICATION_TYPE":"U","NORAD_CAT_ID":57178,"ELEMENT_SET_NO":999,"REV_AT_EPOCH":14925,"BSTAR":0.00059055694,"MEAN_MOTION_DOT":0.00016417,"MEAN_MOTION_DDOT":0},{"OBJECT_NAME":"STARLINK-35131","OBJECT_ID":"2025-235T","EPOCH":"2026-03-09T16:59:42.373248","MEAN_MOTION":15.30199624,"ECCENTRICITY":0.00010683,"INCLINATION":53.1578,"RA_OF_ASC_NODE":245.2262,"ARG_OF_PERICENTER":46.1174,"MEAN_ANOMALY":313.9915,"EPHEMERIS_TYPE":0,"CLASSIFICATION_TYPE":"U","NORAD_CAT_ID":66075,"ELEMENT_SET_NO":999,"REV_AT_EPOCH":2292,"BSTAR":0.0005599778,"MEAN_MOTION_DOT":0.00016262,"MEAN_MOTION_DDOT":0}]
